NORAD_CAT_ID,OBJECT_NAME,OBJECT_TYPE,EPOCH,MEAN_MOTION,ECCENTRICITY,INCLINATION,RA_OF_ASC_NODE,ARG_OF_PERICENTER,MEAN_ANOMALY,BSTAR,MEAN_MOTION_DOT,MEAN_MOTION_DDOT,TLE_LINE0,TLE_LINE1,TLE_LINE2,SEMIMAJOR_AXIS,PERIOD,APOGEE,PERIGEE,DECAYED
52480.0,STARLINK-3839,PAYLOAD,2024-03-24 04:03:35,15.08877327,0.0001351,53.2191,31.2162,91.0946,269.0201,0.00020264,2.942e-05,0.0,0 STARLINK-3839,1 52480U 22049AF  24084.16916584  .00002942  00000-0  20264-3 0  9998,2 52480  53.2191  31.2162 0001351  91.0946 269.0201 15.08877327104391,6917.766,95.435,540.566,538.697,0.0
52480.0,STARLINK-3839,PAYLOAD,2024-03-24 05:38:58,15.08880017,0.0001359,53.2194,30.9159,97.7587,262.3559,0.00022933,3.368e-05,0.0,0 STARLINK-3839,1 52480U 22049AF  24084.23540147  .00003368  00000-0  22933-3 0  9992,2 52480  53.2194  30.9159 0001359  97.7587 262.3559 15.08880017104244,6917.758,95.435,540.563,538.683,0.0
52480.0,STARLINK-3839,PAYLOAD,2024-03-24 19:57:30,15.08831947,9.21e-05,53.219,28.2423,107.5024,252.6069,0.00013033,1.787e-05,0.0,0 STARLINK-3839,1 52480U 22049AF  24084.83159877  .00001787  00000-0  13033-3 0  9998,2 52480  53.2190  28.2423 0000921 107.5024 252.6069 15.08831947104497,6917.905,95.438,540.407,539.133,0.0
52480.0,STARLINK-3839,PAYLOAD,2024-03-25 05:29:47,15.08859787,0.0001524,53.2183,26.4577,85.9311,274.1856,0.00042487,6.484e-05,0.0,0 STARLINK-3839,1 52480U 22049AF  24085.22902305  .00006484  00000-0  42487-3 0  9998,2 52480  53.2183  26.4577 0001524  85.9311 274.1856 15.08859787104559,6917.82,95.436,540.739,538.631,0.0
52480.0,STARLINK-3839,PAYLOAD,2024-03-25 13:26:44,15.08823895,0.0002107,53.2187,24.9712,73.143,286.9793,-0.00015117,-2.692e-05,0.0,0 STARLINK-3839,1 52480U 22049AF  24085.56024286 -.00002692  00000-0 -15117-3 0  9997,2 52480  53.2187  24.9712 0002107  73.1430 286.9793 15.08823895104604,6917.93,95.439,541.252,538.337,0.0
52480.0,STARLINK-3839,PAYLOAD,2024-03-26 13:17:32,15.08834976,0.0001565,53.2195,20.5117,79.9146,280.2023,-0.00016582,-2.926e-05,0.0,0 STARLINK-3839,1 52480U 22049AF  24086.55384502 -.00002926  00000-0 -16582-3 0  9994,2 52480  53.2195  20.5117 0001565  79.9146 280.2023 15.08834976104750,6917.896,95.438,540.843,538.678,0.0
52480.0,STARLINK-3839,PAYLOAD,2024-03-26 22:49:50,15.08846275,0.0001493,53.2201,18.7281,74.8059,285.3098,2.8089e-05,1.59e-06,0.0,0 STARLINK-3839,1 52480U 22049AF  24086.95128079  .00000159  00000-0  28089-4 0  9993,2 52480  53.2201  18.7281 0001493  74.8059 285.3098 15.08846275104658,6917.861,95.437,540.759,538.693,0.0
52480.0,STARLINK-3839,PAYLOAD,2024-03-27 02:00:35,15.08856055,0.0001856,53.2199,18.13,108.0011,252.1183,0.00020402,2.962e-05,0.0,0 STARLINK-3839,1 52480U 22049AF  24087.08374877  .00002962  00000-0  20402-3 0  9991,2 52480  53.2199  18.1300 0001856 108.0011 252.1183 15.08856055104835,6917.831,95.437,540.98,538.412,0.0
52480.0,STARLINK-3839,PAYLOAD,2024-03-27 19:29:51,15.08829568,0.0002004,53.2196,14.8557,85.9412,274.1809,0.00030104,4.505e-05,0.0,0 STARLINK-3839,1 52480U 22049AF  24087.81240512  .00004505  00000-0  30104-3 0  9995,2 52480  53.2196  14.8557 0002004  85.9412 274.1809 15.08829568104943,6917.912,95.438,541.164,538.391,0.0
52480.0,STARLINK-3839,PAYLOAD,2024-03-27 22:40:37,15.08832643,0.0001761,53.2193,14.2619,92.4801,267.6393,0.00032509,4.889e-05,0.0,0 STARLINK-3839,1 52480U 22049AF  24087.94488415  .00004889  00000-0  32509-3 0  9991,2 52480  53.2193  14.2619 0001761  92.4801 267.6393 15.08832643104805,6917.903,95.438,540.986,538.55,0.0
52480.0,STARLINK-3839,PAYLOAD,2024-03-28 05:02:10,15.0884816,0.0001398,53.2187,13.0752,84.912,275.2031,0.00024699,3.646e-05,0.0,0 STARLINK-3839,1 52480U 22049AF  24088.20983805  .00003646  00000-0  24699-3 0  9995,2 52480  53.2187  13.0752 0001398  84.9120 275.2031 15.08848160105007,6917.855,95.437,540.688,538.753,0.0
52480.0,STARLINK-3839,PAYLOAD,2024-03-28 11:23:43,15.08836514,0.0001541,53.2184,11.8832,82.8317,277.2851,0.00023959,3.527e-05,0.0,0 STARLINK-3839,1 52480U 22049AF  24088.47480675  .00003527  00000-0  23959-3 0  9997,2 52480  53.2184  11.8832 0001541  82.8317 277.2851 15.08836514105040,6917.891,95.438,540.822,538.69,0.0
52480.0,STARLINK-3839,PAYLOAD,2024-03-28 22:31:25,15.0884362,0.0001796,53.219,9.8024,92.3972,267.7226,-8.1052e-05,-1.578e-05,0.0,0 STARLINK-3839,1 52480U 22049AF  24088.93848757 -.00001578  00000-0 -81052-4 0  9992,2 52480  53.2190   9.8024 0001796  92.3972 267.7226 15.08843620104957,6917.869,95.437,540.977,538.492,0.0
52480.0,STARLINK-3839,PAYLOAD,2024-03-29 01:42:11,15.08851591,0.0001715,53.2186,9.2102,90.9406,269.1782,-7.6852e-05,-1.511e-05,0.0,0 STARLINK-3839,1 52480U 22049AF  24089.07096089 -.00001511  00000-0 -76852-4 0  9990,2 52480  53.2186   9.2102 0001715  90.9406 269.1782 15.08851591105130,6917.845,95.437,540.896,538.524,0.0
52480.0,STARLINK-3839,PAYLOAD,2024-03-29 11:14:29,15.08854316,0.0001701,53.2187,7.4271,87.7892,272.3295,-3.6564e-05,-8.7e-06,0.0,0 STARLINK-3839,1 52480U 22049AF  24089.46839546 -.00000870  00000-0 -36564-4 0  9999,2 52480  53.2187   7.4271 0001701  87.7892 272.3295 15.08854316105038,6917.837,95.437,540.878,538.525,0.0
52480.0,STARLINK-3839,PAYLOAD,2024-03-29 19:11:25,15.08840103,0.0001792,53.2208,5.9454,101.5645,258.5548,4.1847e-05,3.78e-06,0.0,0 STARLINK-3839,1 52480U 22049AF  24089.79960518  .00000378  00000-0  41847-4 0  9990,2 52480  53.2208   5.9454 0001792 101.5645 258.5548 15.08840103105248,6917.88,95.438,540.985,538.505,0.0
52480.0,STARLINK-3839,PAYLOAD,2024-03-29 22:22:12,15.08837668,0.0001687,53.2207,5.3505,103.9301,256.1879,1.3409e-05,-7.5e-07,0.0,0 STARLINK-3839,1 52480U 22049AF  24089.93208726 -.00000075  00000-0  13409-4 0  9990,2 52480  53.2207   5.3505 0001687 103.9301 256.1879 15.08837668105104,6917.888,95.438,540.92,538.585,0.0
52480.0,STARLINK-3839,PAYLOAD,2024-03-30 11:05:16,15.08845221,0.0001573,53.22,2.9709,94.0255,266.0917,1.6397e-05,-2.7e-07,0.0,0 STARLINK-3839,1 52480U 22049AF  24090.46200207 -.00000027  00000-0  16397-4 0  9992,2 52480  53.2200   2.9709 0001573  94.0255 266.0917 15.08845221105183,6917.864,95.437,540.818,538.641,0.0
52480.0,STARLINK-3839,PAYLOAD,2024-03-30 22:12:59,15.08830981,0.0001527,53.2204,0.8904,103.7574,256.3588,2.6816e-05,1.39e-06,0.0,0 STARLINK-3839,1 52480U 22049AF  24090.92569326  .00000139  00000-0  26816-4 0  9993,2 52480  53.2204   0.8904 0001527 103.7574 256.3588 15.08830981105253,6917.908,95.438,540.829,538.717,0.0
52480.0,STARLINK-3839,PAYLOAD,2024-03-31 02:59:08,15.08840389,0.0001725,53.2188,359.9947,94.0196,266.0993,-6.6454e-06,-3.94e-06,0.0,0 STARLINK-3839,1 52480U 22049AF  24091.12440917 -.00000394  00000-0 -66454-5 0  9998,2 52480  53.2188 359.9947 0001725  94.0196 266.0993 15.08840389105443,6917.879,95.438,540.938,538.551,0.0
52480.0,STARLINK-3839,PAYLOAD,2024-03-31 10:56:03,15.08848524,0.0001568,53.2191,358.5099,108.7541,251.3621,2.2936e-05,7.7e-07,0.0,0 STARLINK-3839,1 52480U 22049AF  24091.45560148  .00000077  00000-0  22936-4 0  9995,2 52480  53.2191 358.5099 0001568 108.7541 251.3621 15.08848524105491,6917.854,95.437,540.804,538.635,0.0
52480.0,STARLINK-3839,PAYLOAD,2024-03-31 22:03:45,15.08848445,0.0001558,53.2182,356.4286,93.8828,266.2342,0.00021793,3.183e-05,0.0,0 STARLINK-3839,1 52480U 22049AF  24091.91927661  .00003183  00000-0  21793-3 0  9993,2 52480  53.2182 356.4286 0001558  93.8828 266.2342 15.08848445105405,6917.855,95.437,540.797,538.642,0.0
52480.0,STARLINK-3839,PAYLOAD,2024-04-01 01:14:31,15.08855933,0.0001294,53.2184,355.8317,86.9942,273.1198,0.00020454,2.97e-05,0.0,0 STARLINK-3839,1 52480U 22049AF  24092.05175220  .00002970  00000-0  20454-3 0  9991,2 52480  53.2184 355.8317 0001294  86.9942 273.1198 15.08855933105587,6917.832,95.437,540.592,538.802,0.0
52480.0,STARLINK-3839,PAYLOAD,2024-04-01 10:46:51,15.08842906,0.0001919,53.2215,354.0481,75.9608,284.1598,9.3607e-05,1.202e-05,0.0,0 STARLINK-3839,1 52480U 22049AF  24092.44920399  .00001202  00000-0  93607-4 0  9997,2 52480  53.2215 354.0481 0001919  75.9608 284.1598 15.08842906105645,6917.872,95.437,541.064,538.409,0.0
52480.0,STARLINK-3839,PAYLOAD,2024-04-01 23:29:57,15.08830094,0.0001465,53.2181,351.6702,77.0614,283.0542,4.0399e-05,3.55e-06,0.0,0 STARLINK-3839,1 52480U 22049AF  24092.97913332  .00000355  00000-0  40399-4 0  9992,2 52480  53.2181 351.6702 0001465  77.0614 283.0542 15.08830094105723,6917.911,95.438,540.789,538.762,0.0
52480.0,STARLINK-3839,PAYLOAD,2024-04-02 10:37:38,15.08840739,0.000123,53.2179,349.5873,83.1862,276.927,2.5161e-05,1.13e-06,0.0,0 STARLINK-3839,1 52480U 22049AF  24093.44280672  .00000113  00000-0  25161-4 0  9991,2 52480  53.2179 349.5873 0001230  83.1862 276.9270 15.08840739105791,6917.878,95.438,540.594,538.892,0.0
52480.0,STARLINK-3839,PAYLOAD,2024-04-02 23:20:43,15.08842438,0.0001229,53.2194,347.2074,91.5046,268.6087,4.9347e-06,-2.09e-06,0.0,0 STARLINK-3839,1 52480U 22049AF  24093.97272580 -.00000209  00000-0  49347-5 0  9998,2 52480  53.2194 347.2074 0001229  91.5046 268.6087 15.08842438105715,6917.873,95.437,540.588,538.888,0.0
52480.0,STARLINK-3839,PAYLOAD,2024-04-03 04:06:52,15.08851917,0.0001347,53.2181,346.3155,89.4254,270.6893,-1.8545e-05,-5.83e-06,0.0,0 STARLINK-3839,1 52480U 22049AF  24094.17144038 -.00000583  00000-0 -18545-4 0  9998,2 52480  53.2181 346.3155 0001347  89.4254 270.6893 15.08851917105900,6917.844,95.437,540.641,538.777,0.0
52480.0,STARLINK-3839,PAYLOAD,2024-04-03 12:03:48,15.088376,0.0001558,53.2178,344.8296,81.7957,278.3211,5.6161e-05,6.06e-06,0.0,0 STARLINK-3839,1 52480U 22049AF  24094.50264888  .00000606  00000-0  56161-4 0  9991,2 52480  53.2178 344.8296 0001558  81.7957 278.3211 15.08837600105951,6917.888,95.438,540.831,538.675,0.0
52480.0,STARLINK-3839,PAYLOAD,2024-04-03 13:39:12,15.08831888,0.0001325,53.2177,344.5323,81.7377,278.3766,0.00013531,1.866e-05,0.0,0 STARLINK-3839,1 52480U 22049AF  24094.56889024  .00001866  00000-0  13531-3 0  9994,2 52480  53.2177 344.5323 0001325  81.7377 278.3766 15.08831888105807,6917.905,95.438,540.687,538.854,0.0
